[{"OBJECT_NAME":"STARLINK-4561","OBJECT_ID":"2022-101AN","EPOCH":"2026-03-09T08:51:43.831584","MEAN_MOTION":15.08852387,"ECCENTRICITY":0.00012328,"INCLINATION":53.2179,"RA_OF_ASC_NODE":55.7816,"ARG_OF_PERICENTER":79.103,"MEAN_ANOMALY":281.01,"EPHEMERIS_TYPE":0,"CLASSIFICATION_TYPE":"U","NORAD_CAT_ID":53563,"ELEMENT_SET_NO":999,"REV_AT_EPOCH":19639,"BSTAR":0.0002153656,"MEAN_MOTION_DOT":3.142e-5,"MEAN_MOTION_DDOT":0},{"OBJECT_NAME":"COSMOS 2251 DEB","OBJECT_ID":"1993-036EU","EPOCH":"2026-03-09T14:44:02.306976","MEAN_MOTION":15.10275873,"ECCENTRICITY":0.0002082,"INCLINATION":74.0027,"RA_OF_ASC_NODE":262.4484,"ARG_OF_PERICENTER":258.1067,"MEAN_ANOMALY":101.9891,"EPHEMERIS_TYPE":0,"CLASSIFICATION_TYPE":"U","NORAD_CAT_ID":33939,"ELEMENT_SET_NO":999,"REV_AT_EPOCH":90059,"BSTAR":0.0040153,"MEAN_MOTION_DOT":0.00066338,"MEAN_MOTION_DDOT":0}]
